start=new Date('2022-10-23T00:00:00.000Z').valueOf();
sats=[{"APOAPSIS":"548.239","CENTER_NAME":"EARTH","REF_FRAME":"TEME","MEAN_ANOMALY":"280.2666","MEAN_MOTION":"15.06413775","OBJECT_NAME":"STARLINK-2566","PERIAPSIS":"546.104","FILE":"3629797","NORAD_CAT_ID":"48287","COUNTRY_CODE":"US","GP_ID":"215924249","DECAY_DATE":null,"SITE":"AFETR","OBJECT_TYPE":"PAYLOAD","EPOCH":"2022-10-22T19:07:12.961056","REV_AT_EPOCH":"8233","RCS_SIZE":"LARGE","BSTAR":"-0.00015997000000","TLE_LINE2":"2 48287  53.0543 220.7894 0001541  79.8497 280.2666 15.06413775 82333","RA_OF_ASC_NODE":"220.7894","TIME_SYSTEM":"UTC","CLASSIFICATION_TYPE":"U","ECCENTRICITY":"0.00015410","PERIOD":"95.591","EPHEMERIS_TYPE":"0","SEMIMAJOR_AXIS":"6925.306","ELEMENT_SET_NO":"999","TLE_LINE1":"1 48287U 21036M   22295.79667779 -.00002664  00000-0 -15997-3 0  9993","INCLINATION":"53.0543","LAUNCH_DATE":"2021-04-29","ARG_OF_PERICENTER":"79.8497","MEAN_MOTION_DOT":"-0.00002664","OBJECT_ID":"2021-036M","MEAN_ELEMENT_THEORY":"SGP4","MEAN_MOTION_DDOT":"0.0000000000000"},{"MEAN_MOTION_DDOT":"0.0000000000000","MEAN_ELEMENT_THEORY":"SGP4","MEAN_MOTION_DOT":"0.00000714","OBJECT_ID":"2021-036N","INCLINATION":"53.0560","LAUNCH_DATE":"2021-04-29","ARG_OF_PERICENTER":"70.3114","SEMIMAJOR_AXIS":"6925.337","ELEMENT_SET_NO":"999","TLE_LINE1":"1 48288U 21036N   22295.79205118  .00000714  00000-0  66800-4 0  9991","PERIOD":"95.592","EPHEMERIS_TYPE":"0","TIME_SYSTEM":"UTC","RA_OF_ASC_NODE":"220.7944","CLASSIFICATION_TYPE":"U","ECCENTRICITY":"0.00015920","BSTAR":"0.00006680000000","TLE_LINE2":"2 48288  53.0560 220.7944 0001592  70.3114 289.8047 15.06403876 82336","EPOCH":"2022-10-22T19:00:33.221952","REV_AT_EPOCH":"8233","RCS_SIZE":"LARGE","GP_ID":"215925000","COUNTRY_CODE":"US","SITE":"AFETR","DECAY_DATE":null,"OBJECT_TYPE":"PAYLOAD","MEAN_ANOMALY":"289.8047","MEAN_MOTION":"15.06403876","PERIAPSIS":"546.099","OBJECT_NAME":"STARLINK-2562","FILE":"3629797","NORAD_CAT_ID":"48288","REF_FRAME":"TEME","CENTER_NAME":"EARTH","APOAPSIS":"548.304"},{"EPHEMERIS_TYPE":"0","PERIOD":"95.592","ELEMENT_SET_NO":"999","TLE_LINE1":"1 48289U 21036P   22295.78930978  .00001658  00000-0  13019-3 0  9991","SEMIMAJOR_AXIS":"6925.340","ARG_OF_PERICENTER":"68.9167","LAUNCH_DATE":"2021-04-29","INCLINATION":"53.0552","MEAN_MOTION_DOT":"0.00001658","OBJECT_ID":"2021-036P","MEAN_ELEMENT_THEORY":"SGP4","MEAN_MOTION_DDOT":"0.0000000000000","CENTER_NAME":"EARTH","APOAPSIS":"548.263","REF_FRAME":"TEME","NORAD_CAT_ID":"48289","FILE":"3629797","OBJECT_NAME":"STARLINK-2545","PERIAPSIS":"546.147","MEAN_ANOMALY":"291.1985","MEAN_MOTION":"15.06402728","DECAY_DATE":null,"SITE":"AFETR","OBJECT_TYPE":"PAYLOAD","COUNTRY_CODE":"US","GP_ID":"215925251","REV_AT_EPOCH":"8233","RCS_SIZE":"LARGE","EPOCH":"2022-10-22T18:56:36.364992","TLE_LINE2":"2 48289  53.0552 220.8171 0001528  68.9167 291.1985 15.06402728 82333","BSTAR":"0.00013019000000","ECCENTRICITY":"0.00015280","CLASSIFICATION_TYPE":"U","TIME_SYSTEM":"UTC","RA_OF_ASC_NODE":"220.8171"},{"CENTER_NAME":"EARTH","APOAPSIS":"548.177","REF_FRAME":"TEME","NORAD_CAT_ID":"48290","FILE":"3629797","OBJECT_NAME":"STARLINK-2540","PERIAPSIS":"546.227","MEAN_ANOMALY":"283.3665","MEAN_MOTION":"15.06403646","DECAY_DATE":null,"SITE":"AFETR","OBJECT_TYPE":"PAYLOAD","GP_ID":"215926002","COUNTRY_CODE":"US","RCS_SIZE":"LARGE","REV_AT_EPOCH":"8233","EPOCH":"2022-10-22T18:51:17.799552","TLE_LINE2":"2 48290  53.0537 220.8227 0001408  76.7481 283.3665 15.06403646 82331","BSTAR":"0.00006559500000","ECCENTRICITY":"0.00014080","CLASSIFICATION_TYPE":"U","TIME_SYSTEM":"UTC","RA_OF_ASC_NODE":"220.8227","EPHEMERIS_TYPE":"0","PERIOD":"95.592","TLE_LINE1":"1 48290U 21036Q   22295.78562268  .00000696  00000-0  65595-4 0  9994","ELEMENT_SET_NO":"999","SEMIMAJOR_AXIS":"6925.337","ARG_OF_PERICENTER":"76.7481","LAUNCH_DATE":"2021-04-29","INCLINATION":"53.0537","OBJECT_ID":"2021-036Q","MEAN_MOTION_DOT":"0.00000696","MEAN_ELEMENT_THEORY":"SGP4","MEAN_MOTION_DDOT":"0.0000000000000"},{"INCLINATION":"53.0555","LAUNCH_DATE":"2021-04-29","ARG_OF_PERICENTER":"80.3404","PERIOD":"95.592","EPHEMERIS_TYPE":"0","SEMIMAJOR_AXIS":"6925.352","ELEMENT_SET_NO":"999","TLE_LINE1":"1 48291U 21036R   22295.51655366  .00001199  00000-0  99359-4 0  9992","MEAN_MOTION_DDOT":"0.0000000000000","MEAN_MOTION_DOT":"0.00001199","OBJECT_ID":"2021-036R","MEAN_ELEMENT_THEORY":"SGP4","REF_FRAME":"TEME","MEAN_ANOMALY":"279.7768","MEAN_MOTION":"15.06398809","PERIAPSIS":"546.097","OBJECT_NAME":"STARLINK-2555","FILE":"3629747","NORAD_CAT_ID":"48291","APOAPSIS":"548.337","CENTER_NAME":"EARTH","BSTAR":"0.00009935900000","TLE_LINE2":"2 48291  53.0555 222.0315 0001617  80.3404 279.7768 15.06398809 82878","TIME_SYSTEM":"UTC","RA_OF_ASC_NODE":"222.0315","CLASSIFICATION_TYPE":"U","ECCENTRICITY":"0.00016170","GP_ID":"215902713","COUNTRY_CODE":"US","DECAY_DATE":null,"OBJECT_TYPE":"PAYLOAD","SITE":"AFETR","EPOCH":"2022-10-22T12:23:50.236224","REV_AT_EPOCH":"8287","RCS_SIZE":"LARGE"},{"MEAN_ELEMENT_THEORY":"SGP4","OBJECT_ID":"2021-036S","MEAN_MOTION_DOT":"0.00001429","MEAN_MOTION_DDOT":"0.0000000000000","ELEMENT_SET_NO":"999","TLE_LINE1":"1 48292U 21036S   22295.79301939  .00001429  00000-0  11477-3 0  9997","SEMIMAJOR_AXIS":"6925.320","EPHEMERIS_TYPE":"0","PERIOD":"95.592","LAUNCH_DATE":"2021-04-29","ARG_OF_PERICENTER":"67.6826","INCLINATION":"53.0540","REV_AT_EPOCH":"8233","RCS_SIZE":"LARGE","EPOCH":"2022-10-22T19:01:56.875296","SITE":"AFETR","DECAY_DATE":null,"OBJECT_TYPE":"PAYLOAD","COUNTRY_CODE":"US","GP_ID":"215924500","CLASSIFICATION_TYPE":"U","ECCENTRICITY":"0.00015250","TIME_SYSTEM":"UTC","RA_OF_ASC_NODE":"220.9750","BSTAR":"0.00011477000000","TLE_LINE2":"2 48292  53.0540 220.9750 0001525  67.6826 292.4325 15.06409341 82333","CENTER_NAME":"EARTH","APOAPSIS":"548.241","FILE":"3629797","NORAD_CAT_ID":"48292","MEAN_ANOMALY":"292.4325","MEAN_MOTION":"15.06409341","OBJECT_NAME":"STARLINK-2542","PERIAPSIS":"546.129","REF_FRAME":"TEME"},{"INCLINATION":"53.0547","LAUNCH_DATE":"2021-04-29","ARG_OF_PERICENTER":"76.5600","PERIOD":"95.592","EPHEMERIS_TYPE":"0","SEMIMAJOR_AXIS":"6925.364","TLE_LINE1":"1 48293U 21036T   22295.11110468 -.00000478  00000-0 -13231-4 0  9995","ELEMENT_SET_NO":"999","MEAN_MOTION_DDOT":"0.0000000000000","OBJECT_ID":"2021-036T","MEAN_MOTION_DOT":"-0.00000478","MEAN_ELEMENT_THEORY":"SGP4","REF_FRAME":"TEME","MEAN_ANOMALY":"283.5541","MEAN_MOTION":"15.06394973","PERIAPSIS":"546.287","OBJECT_NAME":"STARLINK-2550","FILE":"3629476","NORAD_CAT_ID":"48293","CENTER_NAME":"EARTH","APOAPSIS":"548.171","BSTAR":"-0.00001323100000","TLE_LINE2":"2 48293  53.0547 223.8653 0001360  76.5600 283.5541 15.06394973 82235","TIME_SYSTEM":"UTC","RA_OF_ASC_NODE":"223.8653","CLASSIFICATION_TYPE":"U","ECCENTRICITY":"0.00013600","GP_ID":"215892554","COUNTRY_CODE":"US","OBJECT_TYPE":"PAYLOAD","DECAY_DATE":null,"SITE":"AFETR","EPOCH":"2022-10-22T02:39:59.444352","RCS_SIZE":"LARGE","REV_AT_EPOCH":"8223"},{"MEAN_ELEMENT_THEORY":"SGP4","OBJECT_ID":"2021-036U","MEAN_MOTION_DOT":"0.00000063","MEAN_MOTION_DDOT":"0.0000000000000","TLE_LINE1":"1 48294U 21036U   22295.77088553  .00000063  00000-0  23119-4 0  9991","ELEMENT_SET_NO":"999","SEMIMAJOR_AXIS":"6925.359","EPHEMERIS_TYPE":"0","PERIOD":"95.592","LAUNCH_DATE":"2021-04-29","ARG_OF_PERICENTER":"70.9321","INCLINATION":"53.0557","RCS_SIZE":"LARGE","REV_AT_EPOCH":"8233","EPOCH":"2022-10-22T18:30:04.509792","SITE":"AFETR","DECAY_DATE":null,"OBJECT_TYPE":"PAYLOAD","GP_ID":"215925502","COUNTRY_CODE":"US","CLASSIFICATION_TYPE":"U","ECCENTRICITY":"0.00014190","RA_OF_ASC_NODE":"220.8973","TIME_SYSTEM":"UTC","BSTAR":"0.00002311900000","TLE_LINE2":"2 48294  53.0557 220.8973 0001419  70.9321 289.1822 15.06396620 82338","APOAPSIS":"548.207","CENTER_NAME":"EARTH","FILE":"3629797","NORAD_CAT_ID":"48294","MEAN_ANOMALY":"289.1822","MEAN_MOTION":"15.06396620","PERIAPSIS":"546.241","OBJECT_NAME":"STARLINK-2533","REF_FRAME":"TEME"},{"REF_FRAME":"TEME","OBJECT_NAME":"STARLINK-2535","PERIAPSIS":"546.250","MEAN_MOTION":"15.06406836","MEAN_ANOMALY":"291.4788","NORAD_CAT_ID":"48295","FILE":"3629797","CENTER_NAME":"EARTH","APOAPSIS":"548.135","TLE_LINE2":"2 48295  53.0552 220.6259 0001361  68.6346 291.4788 15.06406836 82345","BSTAR":"-0.00002782800000","RA_OF_ASC_NODE":"220.6259","TIME_SYSTEM":"UTC","ECCENTRICITY":"0.00013610","CLASSIFICATION_TYPE":"U","GP_ID":"215924250","COUNTRY_CODE":"US","SITE":"AFETR","DECAY_DATE":null,"OBJECT_TYPE":"PAYLOAD","EPOCH":"2022-10-22T20:00:18.097920","RCS_SIZE":"LARGE","REV_AT_EPOCH":"8234","INCLINATION":"53.0552","ARG_OF_PERICENTER":"68.6346","LAUNCH_DATE":"2021-04-29","PERIOD":"95.592","EPHEMERIS_TYPE":"0","SEMIMAJOR_AXIS":"6925.328","ELEMENT_SET_NO":"999","TLE_LINE1":"1 48295U 21036V   22295.83354280 -.00000696  00000-0 -27828-4 0  9997","MEAN_MOTION_DDOT":"0.0000000000000","MEAN_MOTION_DOT":"-0.00000696","OBJECT_ID":"2021-036V","MEAN_ELEMENT_THEORY":"SGP4"},{"MEAN_MOTION_DDOT":"0.0000000000000","MEAN_ELEMENT_THEORY":"SGP4","OBJECT_ID":"2021-036W","MEAN_MOTION_DOT":"0.00001606","INCLINATION":"53.0533","ARG_OF_PERICENTER":"84.2759","LAUNCH_DATE":"2021-04-29","SEMIMAJOR_AXIS":"6925.343","TLE_LINE1":"1 48296U 21036W   22295.76350426  .00001606  00000-0  12669-3 0  9994","ELEMENT_SET_NO":"999","PERIOD":"95.592","EPHEMERIS_TYPE":"0","TIME_SYSTEM":"UTC","RA_OF_ASC_NODE":"220.9363","ECCENTRICITY":"0.00015270","CLASSIFICATION_TYPE":"U","TLE_LINE2":"2 48296  53.0533 220.9363 0001527  84.2759 275.8404 15.06401831 82330","BSTAR":"0.00012669000000","EPOCH":"2022-10-22T18:19:26.768064","REV_AT_EPOCH":"8233","RCS_SIZE":"LARGE","COUNTRY_CODE":"US","GP_ID":"215925001","OBJECT_TYPE":"PAYLOAD","DECAY_DATE":null,"SITE":"AFETR","PERIAPSIS":"546.150","OBJECT_NAME":"STARLINK-2546","MEAN_ANOMALY":"275.8404","MEAN_MOTION":"15.06401831","NORAD_CAT_ID":"48296","FILE":"3629797","REF_FRAME":"TEME","APOAPSIS":"548.265","CENTER_NAME":"EARTH"}];
